{
  "type": "FeatureCollection",
  "name": "valencia_social_safety_concern_overlays",
  "crs": {
    "type": "name",
    "properties": {
      "name": "urn:ogc:def:crs:OGC:1.3:CRS84"
    }
  },
  "features": [
    {
      "type": "Feature",
      "id": "valencia-unsafe-001",
      "properties": {
        "overlay_id": "valencia-unsafe-001",
        "city_id": "valencia",
        "label": "El Carme",
        "scope": "area",
        "classification": "community_safety_concern",
        "evidence_record_ids": [
          "valencia-op-004",
          "valencia-op-006"
        ],
        "independent_source_count": 2,
        "confidence": "low",
        "display": {
          "fill_color": "#EF4444",
          "fill_opacity": 0.141,
          "stroke_color": "#DC2626",
          "stroke_opacity": 0.626,
          "stroke_width": 2,
          "stroke_dash_array": [
            4,
            6
          ]
        },
        "interaction": {
          "tap_title": "Community safety concern",
          "tap_subtitle": "El Carme",
          "show_evidence_count": true,
          "wording_guardrail": "Describe this as reported or perceived concern, not proof that every street is unsafe."
        },
        "boundary_status": "capped_visual_radius_not_an_administrative_boundary",
        "geometry_source": "fixed_650m_radius_circle_around_evidence_centroid",
        "geometry_role": "visual_evidence_overlay",
        "rating_double_count": false
      },
      "geometry": {
        "type": "Polygon",
        "coordinates": [
          [
            [
              -0.3801,
              39.483639
            ],
            [
              -0.378624,
              39.483527
            ],
            [
              -0.377205,
              39.483195
            ],
            [
              -0.375897,
              39.482655
            ],
            [
              -0.374751,
              39.481929
            ],
            [
              -0.37381,
              39.481044
            ],
            [
              -0.373111,
              39.480034
            ],
            [
              -0.372681,
              39.478939
            ],
            [
              -0.372535,
              39.4778
            ],
            [
              -0.372681,
              39.476661
            ],
            [
              -0.373111,
              39.475566
            ],
            [
              -0.37381,
              39.474556
            ],
            [
              -0.374751,
              39.473671
            ],
            [
              -0.375897,
              39.472945
            ],
            [
              -0.377205,
              39.472405
            ],
            [
              -0.378624,
              39.472073
            ],
            [
              -0.3801,
              39.471961
            ],
            [
              -0.381576,
              39.472073
            ],
            [
              -0.382995,
              39.472405
            ],
            [
              -0.384303,
              39.472945
            ],
            [
              -0.385449,
              39.473671
            ],
            [
              -0.38639,
              39.474556
            ],
            [
              -0.387089,
              39.475566
            ],
            [
              -0.387519,
              39.476661
            ],
            [
              -0.387665,
              39.4778
            ],
            [
              -0.387519,
              39.478939
            ],
            [
              -0.387089,
              39.480034
            ],
            [
              -0.38639,
              39.481044
            ],
            [
              -0.385449,
              39.481929
            ],
            [
              -0.384303,
              39.482655
            ],
            [
              -0.382995,
              39.483195
            ],
            [
              -0.381576,
              39.483527
            ],
            [
              -0.3801,
              39.483639
            ]
          ]
        ]
      }
    },
    {
      "type": "Feature",
      "id": "valencia-unsafe-002",
      "properties": {
        "overlay_id": "valencia-unsafe-002",
        "city_id": "valencia",
        "label": "El Cabanyal",
        "scope": "area",
        "classification": "community_safety_concern",
        "evidence_record_ids": [
          "valencia-op-007",
          "valencia-op-008",
          "valencia-op-009"
        ],
        "independent_source_count": 3,
        "confidence": "high",
        "display": {
          "fill_color": "#EF4444",
          "fill_opacity": 0.22,
          "stroke_color": "#DC2626",
          "stroke_opacity": 0.849,
          "stroke_width": 2,
          "stroke_dash_array": [
            4,
            6
          ]
        },
        "interaction": {
          "tap_title": "Community safety concern",
          "tap_subtitle": "El Cabanyal",
          "show_evidence_count": true,
          "wording_guardrail": "Describe this as reported or perceived concern, not proof that every street is unsafe."
        },
        "boundary_status": "capped_visual_radius_not_an_administrative_boundary",
        "geometry_source": "fixed_650m_radius_circle_around_evidence_centroid",
        "geometry_role": "visual_evidence_overlay",
        "rating_double_count": false
      },
      "geometry": {
        "type": "Polygon",
        "coordinates": [
          [
            [
              -0.3318,
              39.474939
            ],
            [
              -0.330324,
              39.474827
            ],
            [
              -0.328905,
              39.474495
            ],
            [
              -0.327598,
              39.473955
            ],
            [
              -0.326452,
              39.473229
            ],
            [
              -0.325511,
              39.472344
            ],
            [
              -0.324812,
              39.471334
            ],
            [
              -0.324382,
              39.470239
            ],
            [
              -0.324236,
              39.4691
            ],
            [
              -0.324382,
              39.467961
            ],
            [
              -0.324812,
              39.466866
            ],
            [
              -0.325511,
              39.465856
            ],
            [
              -0.326452,
              39.464971
            ],
            [
              -0.327598,
              39.464245
            ],
            [
              -0.328905,
              39.463705
            ],
            [
              -0.330324,
              39.463373
            ],
            [
              -0.3318,
              39.463261
            ],
            [
              -0.333276,
              39.463373
            ],
            [
              -0.334695,
              39.463705
            ],
            [
              -0.336002,
              39.464245
            ],
            [
              -0.337148,
              39.464971
            ],
            [
              -0.338089,
              39.465856
            ],
            [
              -0.338788,
              39.466866
            ],
            [
              -0.339218,
              39.467961
            ],
            [
              -0.339364,
              39.4691
            ],
            [
              -0.339218,
              39.470239
            ],
            [
              -0.338788,
              39.471334
            ],
            [
              -0.338089,
              39.472344
            ],
            [
              -0.337148,
              39.473229
            ],
            [
              -0.336002,
              39.473955
            ],
            [
              -0.334695,
              39.474495
            ],
            [
              -0.333276,
              39.474827
            ],
            [
              -0.3318,
              39.474939
            ]
          ]
        ]
      }
    },
    {
      "type": "Feature",
      "id": "valencia-unsafe-003",
      "properties": {
        "overlay_id": "valencia-unsafe-003",
        "city_id": "valencia",
        "label": "Orriols",
        "scope": "area",
        "classification": "community_safety_concern",
        "evidence_record_ids": [
          "valencia-op-018",
          "valencia-op-019",
          "valencia-op-020"
        ],
        "independent_source_count": 3,
        "confidence": "high",
        "display": {
          "fill_color": "#EF4444",
          "fill_opacity": 0.22,
          "stroke_color": "#DC2626",
          "stroke_opacity": 0.85,
          "stroke_width": 2,
          "stroke_dash_array": [
            4,
            6
          ]
        },
        "interaction": {
          "tap_title": "Community safety concern",
          "tap_subtitle": "Orriols",
          "show_evidence_count": true,
          "wording_guardrail": "Describe this as reported or perceived concern, not proof that every street is unsafe."
        },
        "boundary_status": "capped_visual_radius_not_an_administrative_boundary",
        "geometry_source": "fixed_650m_radius_circle_around_evidence_centroid",
        "geometry_role": "visual_evidence_overlay",
        "rating_double_count": false
      },
      "geometry": {
        "type": "Polygon",
        "coordinates": [
          [
            [
              -0.3659,
              39.499539
            ],
            [
              -0.364424,
              39.499427
            ],
            [
              -0.363004,
              39.499095
            ],
            [
              -0.361696,
              39.498555
            ],
            [
              -0.36055,
              39.497829
            ],
            [
              -0.359609,
              39.496944
            ],
            [
              -0.358909,
              39.495934
            ],
            [
              -0.358479,
              39.494839
            ],
            [
              -0.358334,
              39.4937
            ],
            [
              -0.358479,
              39.492561
            ],
            [
              -0.358909,
              39.491466
            ],
            [
              -0.359609,
              39.490456
            ],
            [
              -0.36055,
              39.489571
            ],
            [
              -0.361696,
              39.488845
            ],
            [
              -0.363004,
              39.488305
            ],
            [
              -0.364424,
              39.487973
            ],
            [
              -0.3659,
              39.487861
            ],
            [
              -0.367376,
              39.487973
            ],
            [
              -0.368796,
              39.488305
            ],
            [
              -0.370104,
              39.488845
            ],
            [
              -0.37125,
              39.489571
            ],
            [
              -0.372191,
              39.490456
            ],
            [
              -0.372891,
              39.491466
            ],
            [
              -0.373321,
              39.492561
            ],
            [
              -0.373466,
              39.4937
            ],
            [
              -0.373321,
              39.494839
            ],
            [
              -0.372891,
              39.495934
            ],
            [
              -0.372191,
              39.496944
            ],
            [
              -0.37125,
              39.497829
            ],
            [
              -0.370104,
              39.498555
            ],
            [
              -0.368796,
              39.499095
            ],
            [
              -0.367376,
              39.499427
            ],
            [
              -0.3659,
              39.499539
            ]
          ]
        ]
      }
    },
    {
      "type": "Feature",
      "id": "valencia-unsafe-004",
      "properties": {
        "overlay_id": "valencia-unsafe-004",
        "city_id": "valencia",
        "label": "Torrefiel",
        "scope": "area",
        "classification": "community_safety_concern",
        "evidence_record_ids": [
          "valencia-op-028",
          "valencia-op-029"
        ],
        "independent_source_count": 2,
        "confidence": "medium",
        "display": {
          "fill_color": "#EF4444",
          "fill_opacity": 0.166,
          "stroke_color": "#DC2626",
          "stroke_opacity": 0.696,
          "stroke_width": 2,
          "stroke_dash_array": [
            4,
            6
          ]
        },
        "interaction": {
          "tap_title": "Community safety concern",
          "tap_subtitle": "Torrefiel",
          "show_evidence_count": true,
          "wording_guardrail": "Describe this as reported or perceived concern, not proof that every street is unsafe."
        },
        "boundary_status": "capped_visual_radius_not_an_administrative_boundary",
        "geometry_source": "fixed_650m_radius_circle_around_evidence_centroid",
        "geometry_role": "visual_evidence_overlay",
        "rating_double_count": false
      },
      "geometry": {
        "type": "Polygon",
        "coordinates": [
          [
            [
              -0.3704,
              39.506839
            ],
            [
              -0.368924,
              39.506727
            ],
            [
              -0.367504,
              39.506395
            ],
            [
              -0.366196,
              39.505855
            ],
            [
              -0.365049,
              39.505129
            ],
            [
              -0.364108,
              39.504244
            ],
            [
              -0.363409,
              39.503234
            ],
            [
              -0.362978,
              39.502139
            ],
            [
              -0.362833,
              39.501
            ],
            [
              -0.362978,
              39.499861
            ],
            [
              -0.363409,
              39.498766
            ],
            [
              -0.364108,
              39.497756
            ],
            [
              -0.365049,
              39.496871
            ],
            [
              -0.366196,
              39.496145
            ],
            [
              -0.367504,
              39.495605
            ],
            [
              -0.368924,
              39.495273
            ],
            [
              -0.3704,
              39.495161
            ],
            [
              -0.371876,
              39.495273
            ],
            [
              -0.373296,
              39.495605
            ],
            [
              -0.374604,
              39.496145
            ],
            [
              -0.375751,
              39.496871
            ],
            [
              -0.376692,
              39.497756
            ],
            [
              -0.377391,
              39.498766
            ],
            [
              -0.377822,
              39.499861
            ],
            [
              -0.377967,
              39.501
            ],
            [
              -0.377822,
              39.502139
            ],
            [
              -0.377391,
              39.503234
            ],
            [
              -0.376692,
              39.504244
            ],
            [
              -0.375751,
              39.505129
            ],
            [
              -0.374604,
              39.505855
            ],
            [
              -0.373296,
              39.506395
            ],
            [
              -0.371876,
              39.506727
            ],
            [
              -0.3704,
              39.506839
            ]
          ]
        ]
      }
    },
    {
      "type": "Feature",
      "id": "valencia-unsafe-005",
      "properties": {
        "overlay_id": "valencia-unsafe-005",
        "city_id": "valencia",
        "label": "Nazaret",
        "scope": "area",
        "classification": "community_safety_concern",
        "evidence_record_ids": [
          "valencia-op-031",
          "valencia-op-032",
          "valencia-op-033",
          "valencia-op-034"
        ],
        "independent_source_count": 4,
        "confidence": "high",
        "display": {
          "fill_color": "#EF4444",
          "fill_opacity": 0.22,
          "stroke_color": "#DC2626",
          "stroke_opacity": 0.85,
          "stroke_width": 2,
          "stroke_dash_array": [
            4,
            6
          ]
        },
        "interaction": {
          "tap_title": "Community safety concern",
          "tap_subtitle": "Nazaret",
          "show_evidence_count": true,
          "wording_guardrail": "Describe this as reported or perceived concern, not proof that every street is unsafe."
        },
        "boundary_status": "capped_visual_radius_not_an_administrative_boundary",
        "geometry_source": "fixed_650m_radius_circle_around_evidence_centroid",
        "geometry_role": "visual_evidence_overlay",
        "rating_double_count": false
      },
      "geometry": {
        "type": "Polygon",
        "coordinates": [
          [
            [
              -0.3337,
              39.448339
            ],
            [
              -0.332225,
              39.448227
            ],
            [
              -0.330807,
              39.447895
            ],
            [
              -0.329499,
              39.447355
            ],
            [
              -0.328354,
              39.446629
            ],
            [
              -0.327413,
              39.445744
            ],
            [
              -0.326715,
              39.444734
            ],
            [
              -0.326284,
              39.443639
            ],
            [
              -0.326139,
              39.4425
            ],
            [
              -0.326284,
              39.441361
            ],
            [
              -0.326715,
              39.440266
            ],
            [
              -0.327413,
              39.439256
            ],
            [
              -0.328354,
              39.438371
            ],
            [
              -0.329499,
              39.437645
            ],
            [
              -0.330807,
              39.437105
            ],
            [
              -0.332225,
              39.436773
            ],
            [
              -0.3337,
              39.436661
            ],
            [
              -0.335175,
              39.436773
            ],
            [
              -0.336593,
              39.437105
            ],
            [
              -0.337901,
              39.437645
            ],
            [
              -0.339046,
              39.438371
            ],
            [
              -0.339987,
              39.439256
            ],
            [
              -0.340685,
              39.440266
            ],
            [
              -0.341116,
              39.441361
            ],
            [
              -0.341261,
              39.4425
            ],
            [
              -0.341116,
              39.443639
            ],
            [
              -0.340685,
              39.444734
            ],
            [
              -0.339987,
              39.445744
            ],
            [
              -0.339046,
              39.446629
            ],
            [
              -0.337901,
              39.447355
            ],
            [
              -0.336593,
              39.447895
            ],
            [
              -0.335175,
              39.448227
            ],
            [
              -0.3337,
              39.448339
            ]
          ]
        ]
      }
    }
  ]
}
